CLIENTE,Name,Contacto,,Tax Id,Main Phone #,Address,City,Postal Code,Province,Region
M00213,COMPUTRAINING INFORMATICA Y SERVICIOS,Mariano   ,MUÑOZ,ESB39428545,+34 942 240072,"General Dávila, 212B Edf.",SANTANDER,39006,SANTANDER,CANTABRIA
M00288,"ELECTRONICA ARA, S.L",Pedro ,Ruiz Luande,A50109412,+34 976 658008,"Ramon Salanova, 10 Loc.",ZARAGOZA,50017,ZARAGOZA,ARAGON
M00814,HARDNET SYSTEMS INF.,LUIS  ,Regaña,B25506080,+34 973 727172,"Baro de Maials, 11 Bajos",LLEIDA,25005,LLEIDA,CATALUÑA
M00879,TAEMSA.,Juan ,Rueda,ESA43048487,+34 977232105,Escultor Verderol 10,Tarragona,43002,TARRAGONA,CATALUÑA
M00950,"KRONOS CONSULTING, S",Juan ,Forte,B50727981,+34 976 227 600,"Av Salvador Allende,75",Zaragoza,50015,ZARAGOZA,ARAGON
M01233,THOMAINFOR,Gala ,Coloma,ESA28816379,+34 916574300,"Aragoneses, 7 A",Alcobendas,28108,MADRID,MADRID
M01331,MECANIZACION TENA,David ,Martínez ,ESB10024941,+34 924840962,"Pol. Industrial caganda, 9",Villanueva De La Serena,6700,BADAJOZ,EXTREMADURA
M01335,"GOTOR COMUNICACIONES, S.A.",ALBERTO  ,Chacon,A50315886,+34 97 6467467,"Argualas, 40 Ed. El Greco",Zaragoza,50012,ZARAGOZA,ARAGON
M01387,"MEDIATEC SISTEMAS INFORMA, S.L.",ANDRES  ,GABRIEL,B91472928,+34 954583985,"C/Mª Josefa Segovia, 42",Sevilla,41007,SEVILLA,ANDALUCIA
M01471,DAT-DEVELOP ADVANCED,Miguel ,Buxatos,ESB60397255,+34 93 3099100,"Almagarabes, 74-76",Barcelona,8018,BARCELONA,CATALUÑA
M01790,"SUMO CENTRO GRAFICO, S.A.",Laura ,Gastón,ESA78403524,+34 916373969,"C/ C, nº 2, Parque Empresarial Europolis",Las Rozas,28230,MADRID,MADRID
M02000,MECAMAC EXTREMADURA.,Laura ,Jimeno,ESB10103398,+34 927213398,"Arturo Aranguren, 12",Cáceres,10002,CACERES,EXTREMADURA
M02346,INFOLOGIC,SERGIO ,DEL  Santos ,B62127352,+34 93 8463535,"Corro, 129, Bajo",Granollers,8400,BARCELONA,CATALUÑA
M02417,SOLUC. INFORMAT. NETYMEDIA,Juan ,Sinmiedo,ESB99009722,+34 976405978,"Garcia Galdeano, 3 2ºB",Zaragoza,50004,ZARAGOZA,ARAGON
M02818,RIBAL QUINTANA,ADRIÁN  ,GARCIA,ESB25391806,+34 973 140549,"Via Aurelia, 29",Les Borges Blanques,25400,LLEIDA,CATALUÑA
M03163,NET CONTROL SOL. INF,Pavel   ,Rodea ,ESB61854527,+34 932980720,"Badal, 102",Barcelona,8014,BARCELONA,CATALUÑA
M03212,EQUIP-PRO,MARTIN  ,ALVAREZ,ESB25264870,+34 973 282325,"Lluis Companys, 3",Lleida,25003,LLEIDA,CATALUÑA
M03365,MAXIPROJECT,JAIME  ,Doval,ESB17499435,+34 972214021,"Carretera de Barcelona, 145",Girona,17001,GIRONA,CATALUÑA
M03578,"PASCUAL ARRANZ, S.L.",Jose Ramón ,clerigué,B47203013,+34 983 344222,"Doctrinos, 12",Valladolid,47001,VALLADOLID,CAST-LEON
M03755,TRUST INTERNET S.L.L,Almudena  ,Lasa,B10276335,+34 927 627201,"Argentina, 8, 1ºB",Caceres,10001,CACERES,EXTREMADURA
M04481,MEGASTAR,Bill ,Aiterute,B50563501,+34 976 322787,"Unceta, 40",Zaragoza,50010,ZARAGOZA,ARAGON
M05211,BETA MAYORISTA INFOR,Unai ,estrés,ESB50936574,+34 976 405850,"Pº Echegaray y Caballero, 8",Zaragoza,50003,ZARAGOZA,ARAGON
M05684,MICROX INFORMATICA 2,Ángel   ,WILLIAM,B73079154,+34 968938384,"Fco.Salzillo, Parcela 22/4",Murcia,30169,MURCIA,MURCIA
M05849,SEINMA,Luis ,Amador,ESB81302663,+34 915733094,Av. Menéndez Pelayo 53,Madrid,28009,MADRID,MADRID
M05925,"TUSET 13, S.A.",RAÚL  ,Garcia,ESA58510439,+34 932417230,"Tuset, 13, Ppal. 2º",Barcelona,8005,BARCELONA,CATALUÑA
M05982,LSF INFORMATICA,LUIS MIGUEL  ,Mucha,ES13773263N,+34 942 240880,"Vía Cornelia, 21 b",Santander,39001,CANTABRIA,CANTABRIA
M06268,INFOUNIO SL,Andrzej   ,Chilla,B25499757,+34 97 3281667,"Unió, 19 bajos",Lleida,25002,LLEIDA,CATALUÑA
M06466,GABINETE AVANZ.EN DE,Tamara   ,VALLEJO,ESB62729322,+34 93 7277486,"Planes, 39B",Sabadell,8201,BARCELONA,CATALUÑA
M06698,"DYCEC, S.A.",Nuria ,Aragón Martínez,ESA28454940,+34 918037444,"Torres Quevedo, 1",Tres Cantos,28760,MADRID,MADRID
M06774,MICRO ENTORN,ALEJANDRO  ,ALBA,ESB25342171,+34 973 321420,Av. Cataluña 43,Pus,25250,LLEIDA,CATALUÑA
M06856,"TRADEX INFORMATICA,",GABRIEL  ,Luna ,ESB92001197,+34 95 2331939,"Atenas, 42",Málaga,29006,MALAGA,ANDALUCIA
M07091,ANTIC RAL 1003 S.L.,PALOMA  ,RIVERA,ESB62171681,+34 934121066,"Ronda Sampera, 39",Barcelona,8010,BARCELONA,CATALUÑA
M07110,AULA INTERACTIVA,JUAN  ,fernandez,ESE96606900,+34 96 2720789,"Las Posadas, 16",Villar Del Arzobispo,46170,VALENCIA,VALENCIA
M08130,"DISTRIBUIDORA MALAGUEÑA DE PAPELERIA,S.A",DIEGO  ,Garcia,ESA29070943,+34 952061468,PUERTA DEL MAR 18 2 PL.,Malaga,29005,MALAGA,ANDALUCIA
M10065,PROMOCIONES CARLET,BELEN  ,Flores ,ESA46463816,+34 96 2531497,"Ctra. Carlet-Valencia, Km 1",Carlet,46240,VALENCIA,VALENCIA
M12477,VANTURE CORPORATE,AZUCENA  ,PLAZA,ESA63201735,+34 935 679710,"Av. Ports de Europa, 10",Barcelona,8040,BARCELONA,CATALUÑA
M22270,VIRTUAL DESK,Alejandro ,Caballero,ESB80618085,+34 915980460,"Avda. de Brasil, 17, 5º A/B",Madrid,28020,MADRID,MADRID
M23255,"CTHA SOLUCIONES, S.C.",Luis ,Ruz,G99051484,+34 976489455,"Pol el portazgo nave 13; 1,",Zaragoza,50011,ZARAGOZA,ARAGON
M26100,"IDESCOM, S.C.P.",Ezequiel ,Frescala,G63062731,+34 93 3031139,"c/ espronceda, 180 desp. B-14",Barcelona,8018,BARCELONA,CATALUÑA
M26211,MUNINFOR,IVÁN  ,Garcia,ESB31461874,+34 948 848332,"Pablo Sarasate, 6",Tudela,31500,NAVARRA,NAVARRA
M26287,"S.P.I., S. COOP.",Pablo ,Ruz,ESF22148670,+34 974 246518,"Ricardo Del Arco, 25",Huesca,22004,HUESCA,ARAGON
M26428,SISTEMAS INFORMAT. M,Jose Luis ,Gallego,B29830148,95-236 15 23,"Avda. Andalucia, 27 Ofic. 11",Malaga,29006,MALAGA,ANDALUCIA
M26610,INFORMATICA I OFIMAT,Jack ,Unsworth,ESB43475714,+34 977 402500,"Av. Comaruqe Catalanes, 9",Moradebre,43740,TARRAGONA,CATALUÑA
M26695,JOSE ENRIQUE IBARRA,Eduardo  ,Garcia,ES34849563D,+34 950622385,"Avenida Del Perú, 58-62",Almeria,4006,ALMERIA,ANDALUCIA
M33000,COMEX SISTEMAS,Luis ,Mango,ESB50990282,+34 976207207,"Plaza Antonio Beltrán Martínez, nº1,  plt. 1º ofic. B",Zaragoza,50002,ZARAGOZA,ARAGON
M40015,BINARI SOLUCIONS I T,ESTEBAN  ,Serrano ,B25477571,+34 973 711 715,"Avda. Canal, 7 Baixos",Mollerussa,25230,LLEIDA,CATALUÑA
M50212,PENTINFOR TIENDAS,FRANCISCO JOSÉ  ,HOYAS,ESB91089342,+34 95 4636214,"Av. Cruz del Campo, 62",Sevilla,41005,SEVILLA,ANDALUCIA
M50445,DISTR. INF. JAVIER S,LAURA  ,MONCADA,ESB39417332,+34 942 250359,"Menedez pelayo, 40, local 2",Maliaño,39600,CANTABRIA,CANTABRIA
M50482,MACROFICE,Ruth ,Cadahía,ESB22219752,+34 974246455,"Casado del Alisal,  7 bº",Huesca,22005,HUESCA,ARAGON
M50495,DEPARTAMENTO DE INF.,Jesús ,Inarejos ,B24089211,+34 987 424700,"Avda de España, 36 Entlo. Izq.",Ponferrada,24400,LEON,CAST-LEON
M50602,SOFTCOM INFORMATICA,FERNANDO  ,Garcia,ESB41434598,+34 95 5087000,"Manufactura, 8, 1ª 8",Sevilla,41927,SEVILLA,ANDALUCIA
M50763,MAPA INFORMAT. Y TEL,JOSE  ,Danaila,ESB73032054,+34 968286573,"San Basilio, 1 1ª A",Murcia,30009,MURCIA,MURCIA
M51043,TECNOCOMS,Emilia ,Lago,ES16807857D,+34 975239377,"Avda. Valladolid, 45, 3ºC",Soria,42003,SORIA,CAST-LEON
M51338,SICOM SOLUCIONES INT,Javier   ,Garcia,ESB31755432,+34 948 402168,"Av. Zaragoza, 67",Tudela,31500,NAVARRA,NAVARRA
M51663,MENARINI DIAGNOSTICO,VÍCTOR  ,Villalba ,ESA08534638,+34 93 5071000,"Av. del Maresme, 120",Badalona,8918,BARCELONA,CATALUÑA
M52114,SERV. INF. TECNICOS,Gabriel   ,MARCOS,ESB31669203,+34 948136029,"Remiro de Goñi, 36",Pamplona,31009,NAVARRA,NAVARRA
M52133,INTERSOLIN SER.INF.I,Josue ,Baldoter,ESB50814730,+34 976281212,"Av. Pablo Gargallo, 100, 2º Pl. ofic. 1",Zaragoza,50003,ZARAGOZA,ARAGON
M52389,INFORMAT CATALANA 2000,Robert ,Bustos,ESB61655627,+34 93 3210719,"Europa, 25",Barcelona,8028,BARCELONA,CATALUÑA
M52407,EVOLUCION INFORMATIC,JOAO  ,MENENDEZ,ESA01057413,+34 945 225166,"Fernández de Leceta 10, Bajo",Vitoria,1009,ALAVA,PAIS VASCO
M52737,VISUALCOM SOLUTIONS,Elia ,Kaan,B50685643,+34 976 259099,"Santa Cruz de Tenerife,  1 loc.",Zaragoza,50007,ZARAGOZA,ARAGON
M53476,ANTONIO TOMAS PAZ LO,Roger ,Martins,ESN32805947,+34 981 200536,"Vereda del polvorín,  41, 2º",A Coruña,15002,LA CORUÑA,GALICIA
M54232,INFOARANDA,MARIO  ,MUÑOZ,ESB09364365,+34 94 7511169,"Monte La Torre, 9 bj.",Aranda De Duero,9400,BURGOS,CAST-LEON
M54814,DEINCO.DES.E.INT.SI.,Ainara ,Bella,ESB50875905,+34 976302150,"Av. Goya, 72 1º C",Zaragoza,50005,ZARAGOZA,ARAGON
M55325,GRUPO 3 SALMANTINO,Juan Carlos ,Lopez Alcazar,ESB37266210,+34 923 262507,"Rua Mayor, 7",Salamanca,37002,SALAMANCA,CAST-LEON
M55774,DIURNUS,Sara ,Matas,B60963220,+34 93 4677699,"Rambla Catalunya 4, 4-3",Barcelona,8007,BARCELONA,CATALUÑA
M58602,"MEGATELEC, S.L.",ANTONIO  ,Jaime,B30626600,+34 968 536043,"Alameda de San Anton, 42",Cartagena,30205,MURCIA,MURCIA
M59555,INELEC INGENIERIA EN,MIGUEL  ,Nunes ,A09267568,+34 94 7298495,"Lopez Bravo, 7 Naves Cam 51",Burgos,9001,BURGOS,CAST-LEON
M59629,INTECAT XARXES I SIS,VÍCTOR  ,VAQUERO,ESB61591277,+34 93 7270791,"Carretera de barcelona, 150",Barcelona,8205,BARCELONA,CATALUÑA
M61601,PLAN ALFA S.L.,Geraldine ,Paredes,ESB78478344,+34 917454270,"Nuñez de Balboa, 115 bis",Madrid,28006,MADRID,MADRID
M61862,"INFORMATICA SENZILL, S.L.",ALEJANDRO  ,Brio,ESE07270036,+34 971420952,"Manacor, 171, 1º",Palma De Mallorca,7007,BALEARES,BALEARES
M62026,INFORMATICA MAHON,ALEXIS  ,Garcia,ESB07963515,+34 971 353323,"Avd. Vives llun, 46",Mahón,7703,BALEARES,BALEARES
M62834,"ABC MICROS INFORMATICA, S.L.",LUIS  ,Garcia,B31539638,+34 948 263221,"Avda. Pío XII, 28",Pamplona,31008,PAMPLONA,NAVARRA
M62907,MCM LABS,Yoel   ,BEZYR,B61462768,+34 93 4907900,"Violante de Hungría, 71, 1ª Pl",BARCELONA,8028,BARCELONA,CATALUÑA
M62929,INFORMAT. TRANSP. Y,Luis ,Hurtado,ESA79303590,+34 916733232,"Tierra de barros, 2   3º",Coslada,28820,MADRID,MADRID
M63126,"REDLINE ASESORES, S.",JESUS  ,Garcia,A31098064,+34 948 238512,"Av. Serapio Huici, 22, Tras",Villava,48930,VIZCAYA,PAIS VASCO
M63191,N-LINK AUTOMATIZ Y S,JESÚS  ,MARTOS,ESB31718166,+34 948 136765,"La Fuente, 13 Bj.",Burlada,31600,NAVARRA,NAVARRA
M63259,"AUSATEL, S.C.P.",SERGIO  ,SALT,G61216610,+34 93 8570401,"Mallol, 22 Bajos",Sant Hipolit de Voltregá,8512,BARCELONA,CATALUÑA
M63741,SINMO MULTIMEDIA,ÁNGEL  ,CRESPO,ESB16195802,+34 969 320809,"Antonio Machado, 4 bis- bajos",Cuenca,16400,CUENCA,CAST-MANCHA
M64409,"BYTECUS SERVEIS INTEGRALS, S.L.",Saúl  ,Garcia,B64178163,+34 93 867 52 07,"Girona 36, 2, primero",Sant Celoni,8470,BARCELONA,CATALUÑA
M66235,ECOCOMPUTER,Angel ,Lopez,ESB33568130,+34 985 525046,"Jose Antonio Rodriguez, 6 Bj.",Avilés,33401,ASTURIAS,ASTURIAS
M66297,GSM MULTIMEDIA,MIHAI  ,PARRA,B48846505,+34 94 4241862,"Henao, 13, 4ª Plta. E-F",Bilbao,48009,VIZCAYA,PAIS VASCO
M66310,ESITECH INFORMATICA,Yvan ,Holiday,ESB43757244,+34 977130051,"Av. comarcas catalanas,16-24, loc. 4",Torredembarra,43830,TARRAGONA,CATALUÑA
M66532,MSIC SANZ DE LAS HER,Catalina ,Gastón Freire,ESB40176620,+34 921 412118,"Av. Constitución, 38",Segovia,40005,SEGOVIA,CAST-LEON
M66602,"CASARRAMONA, S.A.",ÓSCAR  ,Garcia,ESA58385246,+34 937336666,"Placeta de la Font Trobada , 1",Terrassa,8221,BARCELONA,CATALUÑA
M67294,ALICIA instalaciones,Juan Carlos,Sanchez ,35558846H,+34 986 610363,"Rua Galicia, 37",La Guardia,36780,PONTEVEDRA,GALICIA
M67336,TARGET TECNICOS INFO,Alma ,Biz,ESB50827328,+34 976350002,"San Roque, 20",Zaragoza,50010,ZARAGOZA,ARAGON
M67427,BCN BIT,Fabian  ,Piñar,B62982558,+34 93 4547300,"Pamplona, 88",Barcelona,8018,BARCELONA,CATALUÑA
M67532,DETEINCO,SALMA  ,Garcia,B60763554,+34 93 8893384,"Pare Coll, 14, Bajos",Vic,8500,BARCELONA,CATALUÑA
M67953,"AG SISTEMAS INFORMATICOS, S.L.",PABLO  ,PEREZ,ESB60186855,+34 933012211,"Girona, 27 1º2ª",Barcelona,8010,BARCELONA,CATALUÑA
M68405,INSTALACCIONES INTEG,Francisco   ,Garcia,B91234922,+34 95 4704383,"Oscar Carballo,7",Sevilla,41018,SEVILLA,ANDALUCIA
M68500,"ELECTR. EDIMAR, S.A.",Jorge ,Martinez,ESA33619438,+34 985 353451,"Cangas De Onil, 4 - 6",Gijón,33207,ASTURIAS,ASTURIAS
M68613,EQUIPOS Y SERV.OFIM.,Daniel ,Perez Alberola,ESB47496070,+34 983238949,"Madreselva, 3",Valladolid,47009,VALLADOLID,CAST-LEON
M68774,SEINCO.,Beatriz ,Estébanez ,B37036589,+34 923 242007,"Torres Villarroel, 17",SALAMANCA,37005,SALAMANCA,CAST-LEON
M69266,ASTERCENTRE,AARÓN   ,Duran ,ESB25353277,+34 973450333,"Doctor Fleming, 27 Bajos",Balaguer,25600,LLEIDA,CATALUÑA
M69499,2 CTROL SIST. INFORM,Arantxa ,Martín,B59060582,+34 93 4178734,"Castanyer, 16 bajos",BARCELONA,8022,BARCELONA,CATALUÑA
M69591,TECMAN SERVEIS INFOR,PEDRO  ,RODRIGO,ESB61353470,+34 932922212,"Plaza Narcis Oller, 6",BARCELONA,8006,BARCELONA,CATALUÑA
M69600,"DAFI SERVICIOS INFORMATICOS, S.L.",GONZALO  ,Garcia,ESB31774524,+34 948072769,"Travesía Ana de Velasco, 2 B",Pamplona,31006,NAVARRA,NAVARRA
M69978,JOSE LUIS QUINTEIRO,JOSE LUIS ,QUINTEIRO,ES32318344D,+34 981268985,"Borrallon, 13",A Coruña,15007,LA CORUÑA,GALICIA
M74621,SIMM S.L.,ALBA  ,Barrios ,ESB07805054,+34 971900365,"Capitan Solom, 37 Bajo",Palma De Mallorca,7004,BALEARES,BALEARES
M74753,"EON INFORMATICA, S.A",Luisa ,Bellaterra,ESA50512763,+34 976 203040,"Pza. Herrera de los Navarros,",Zaragoza,50002,ZARAGOZA,ARAGON
M77877,FINDER MAC,AITOR  ,ARGILES,B17894767,+34 972 218535,"Riu Freser, 80 Bis",Girona,17003,GIRONA,CATALUÑA
M79194,BMB GESTION DOCUMENTAL,CÉSAR  ,fernandez,ESB53393716,+34 96 3533833,"Av. Cortes Valencianas, 39, planta 12",Valencia,46015,VALENCIA,VALENCIA
M80171,JESEM SERV. INFORM,Angel ,De Juan ,ESB10193282,+34 927 7222587,"Donantes de sangre, 2",Cáceres,10002,CACERES,EXTREMADURA
M80527,ARRAY LEVANTE,ARTURO  ,Torre,B30411318,+34 968 493221,"Ciclista J. Hdez. Zaragoza, 5",Aguilas,30880,MURCIA,MURCIA
M80576,B.M. EXTREMADURA.,Luis,Alcazar Vicente,B06162416,+34 924 804571,"Av. Constitucion, 32",DON BENITO,6400,BADAJOZ,EXTREMADURA
M80872,ATLAS INTERNET SOLUT,PABLO  ,Plaza,ESA62396908,+34 934452461,"Valencia, 231, 3-2",Barcelona,8007,BARCELONA,CATALUÑA
M84660,GARCIA VAZQUEZ D.S.L.,Dan ,Zavala,ESB47249792,+34 983 395135,"Labradores, 34",Valladolid,47004,VALLADOLID,CAST-LEON
M88242,TRON & COMP INFORM.,FRANCISCO JOSÉ  ,HUEROS,B41751546,+34 95 4241660,"Ramón Carandel, 29, Local 4",Sevilla,41013,SEVILLA,ANDALUCIA
M88297,M Y EG INFORMATICA,Xavier ,Castellano,B13187893,+34 926 550369,"Plaza Mayor,1 Local 3",Alcázar De San Juan,13600,CIUDAD REAL,CAST-MANCHA
M90125,UNIPAPER ANDORRA.,ADRIAN  ,Petrisor ,910066H,+34 973 864413,"Avda. D'Enclar, 26",Santa Coloma,77000,ANDORRA,ANDORRA
M90165,ALBORAN INFORMATICA,Pedro ,Piedrahita,ESA50094705,+34 976237170,"Bolonia, 18",Zaragoza,50008,ZARAGOZA,ARAGON
M90674,PINAGLIA INFORMATICA,Rubén Darío ,Rodrigo Rodríguez,ESB81506206,+34 915739111,"Rafael Salazar Alonso, 5, 1º D",Madrid,28007,MADRID,MADRID
M90696,LINK MANTENIMIENTOS,ÁLVARO  ,CASTRO,B07988447,+34 971 318288,"Ciudad Jardín, 4, BL-2, L-1",PUIG DE VALLS,7819,BALEARES,BALEARES
M90728,B&G EL EJIDO,Rosa  ,Garcia,ESB04450136,+34 950572438,"Soria, 10  galeria",El Ejido,4700,ALMERIA,ANDALUCIA
M90856,ISI CONSULTING,DANIEL  ,fernandez,B96291976,+34 96 2683268,"Dol. Ibarruri La Pasionaria,15",Puerto De Sagunto,46520,VALENCIA,VALENCIA
M90955,DOCELEC,Elia ,Cabrero,ESB24499402,+34 987201676,"Moisés de León, 42, 1º",León,24005,LEON,CAST-LEON
M90964,SOLUCIONES DIGITALES,Angel ,Cantarero,ESB33524067,+34 985296776,"Murillo, 1 Bj.",Oviedo,33011,ASTURIAS,ASTURIAS
M99196,DIOP,José Andrés   ,Garcia,B48561799,+34 944633238,"Villa de Plencia, 6 - Lonja",Bilbao,48930,VIZCAYA,PAIS VASCO
M99753,SINEN SOLUCIONES INF,DIEGO  ,FUENTES,B97155063,+34 96 2280111,"La Barcella, 9",Xeraco,46770,VALENCIA,VALENCIA
U05863,MICRO COMPUTER SYSTE,Pedro ,Parada,ESB43631811,+34 977 351419,"Arquitecto Ubach, 15",Salou,44384,TARRAGONA,CATALUÑA
U22112,CENTRE GRAFIC,VICTOR  ,PELAYO,ESF60381878,+34 938753993,"Lleida, 10",Manresa,8240,BARCELONA,CATALUÑA
U27020,COPIADORAS DEL SUROE,Beatriz ,Alcazar,ESB06243604,34924312732,"San Juan, 27",Mérida,6800,BADAJOZ,EXTREMADURA
U37152,RIFE ELECTRONICA,Miguel Angel ,Perez ,ESA08230419,+34 93 4511336,"Aribau, 79",Barcelona,8036,BARCELONA,CATALUÑA
U39991,"D.K.R., S. INFORMATI",Miguel   ,OLMO,B48877104,+34 94 4701246,Monteretza 2 lonja,BILBAO,48003,VIZCAYA,PAIS VASCO
